{"spaceTrack": {"CCSDS_OMM_VERS": "2.0", "COMMENT": "GENERATED VIA SPACE-TRACK.ORG API", "CREATION_DATE": "2022-06-16T02:58:01", "ORIGINATOR": "18 SPCS", "OBJECT_NAME": "STARLINK-4071", "OBJECT_ID": "2022-053R", "CENTER_NAME": "EARTH", "REF_FRAME": "TEME", "TIME_SYSTEM": "UTC", "MEAN_ELEMENT_THEORY": "SGP4", "EPOCH": "2022-06-15T22:00:00.999936", "MEAN_MOTION": 15.55812414, "ECCENTRICITY": 0.0001193, "INCLINATION": 53.2173, "RA_OF_ASC_NODE": 157.669, "ARG_OF_PERICENTER": 67.1226, "MEAN_ANOMALY": 254.6089, "EPHEMERIS_TYPE": 0, "CLASSIFICATION_TYPE": "U", "NORAD_CAT_ID": 52671, "ELEMENT_SET_NO": 999, "REV_AT_EPOCH": 130, "BSTAR": -0.011045, "MEAN_MOTION_DOT": -0.0071125, "MEAN_MOTION_DDOT": 0, "SEMIMAJOR_AXIS": 6777.929, "PERIOD": 92.556, "APOAPSIS": 400.603, "PERIAPSIS": 398.985, "OBJECT_TYPE": "PAYLOAD", "RCS_SIZE": "LARGE", "COUNTRY_CODE": "US", "LAUNCH_DATE": "2022-05-18", "SITE": "AFETR", "DECAY_DATE": null, "DECAYED": 0, "FILE": 3496999, "GP_ID": 206240676, "TLE_LINE0": "0 STARLINK-4071", "TLE_LINE1": "1 52671U 22053R   22166.91667824 -.00711250  00000-0 -11045-1 0  9993", "TLE_LINE2": "2 52671  53.2173 157.6690 0001193  67.1226 254.6089 15.55812414  1300"}, "height_km": 408.19802158373386, "latitude": 50.24841991035003, "launch": "62615ebc0ec008379be596fa", "longitude": 132.09203622009304, "velocity_kms": 7.672447645153408, "version": "v1.5", "id": "628ea116a8973c1694df189b"}